GLOBALSTAR M045         
1 25676U 99019A   25365.47713134 -.00000104  00000+0 -96306-4 0  9999
2 25676  51.9970 102.9456 0000720 139.6344 301.8570 12.27070448217611
GLOBALSTAR M019         
1 25677U 99019B   25365.89291973  .00000022  00000+0  11678-2 0  9992
2 25677  51.9868 246.0436 0002012  30.4257  51.2394 12.13881519209157
GLOBALSTAR M044         
1 25678U 99019C   25365.78445692 -.00000008  00000+0  10624-2 0  9995
2 25678  51.9942 222.4231 0007167  62.2180  17.4390 11.90263668194859
GLOBALSTAR M042         
1 25679U 99019D   25365.92161965 -.00000021  00000+0  67063-3 0  9995
2 25679  51.9988 212.7405 0003190  10.0890  98.2306 12.22095642209432
GLOBALSTAR M025         
1 25770U 99031A   25365.56195666 -.00000060  00000+0  23724-3 0  9995
2 25770  51.9830  62.0363 0002714 118.1918  31.1601 11.22559609503877
GLOBALSTAR M049         
1 25771U 99031B   25365.54872919 -.00000010  00000+0  19226-2 0  9993
2 25771  51.9876 106.7479 0002419   7.0046 353.0784 11.12123874139381
GLOBALSTAR M047         
1 25772U 99031C   25365.60483249 -.00000069  00000+0  25794-4 0  9998
2 25772  51.9844  84.7292 0016178 239.3383 120.5828 11.31931886493465
GLOBALSTAR M052         
1 25773U 99031D   25365.90364998 -.00000064  00000+0  65467-4 0  9997
2 25773  51.9828 211.8397 0003441 119.7259 343.2786 11.15063201500565
